[{"OBJECT_NAME":"EXACTVIEW-1 (ADS-1B)","OBJECT_ID":"2012-039C","EPOCH":"2026-03-09T21:13:50.174400","MEAN_MOTION":14.24951198,"ECCENTRICITY":0.00118702,"INCLINATION":98.9638,"RA_OF_ASC_NODE":184.1041,"ARG_OF_PERICENTER":97.8489,"MEAN_ANOMALY":262.4037,"EPHEMERIS_TYPE":0,"CLASSIFICATION_TYPE":"U","NORAD_CAT_ID":38709,"ELEMENT_SET_NO":999,"REV_AT_EPOCH":70856,"BSTAR":0.0001068616,"MEAN_MOTION_DOT":2.04e-6,"MEAN_MOTION_DDOT":0},{"OBJECT_NAME":"NOAA 16 DEB","OBJECT_ID":"2000-055DK","EPOCH":"2026-03-09T01:08:35.038464","MEAN_MOTION":14.25577722,"ECCENTRICITY":0.00131861,"INCLINATION":98.6197,"RA_OF_ASC_NODE":111.3296,"ARG_OF_PERICENTER":98.4171,"MEAN_ANOMALY":261.8504,"EPHEMERIS_TYPE":0,"CLASSIFICATION_TYPE":"U","NORAD_CAT_ID":41206,"ELEMENT_SET_NO":999,"REV_AT_EPOCH":52831,"BSTAR":0.0017243451,"MEAN_MOTION_DOT":4.043e-5,"MEAN_MOTION_DDOT":0}]
